start=new Date('2023-05-07T00:00:00.000Z').valueOf();
sats=[{"ELEMENT_SET_NO":"999","COUNTRY_CODE":"US","GP_ID":"231349784","ECCENTRICITY":"0.00010420","NORAD_CAT_ID":"47585","INCLINATION":"53.0553","MEAN_MOTION_DOT":"0.00019986","TLE_LINE1":"1 47585U 21009AP  23125.96534674  .00019986  00000-0  13575-2 0  9994","TIME_SYSTEM":"UTC","REF_FRAME":"TEME","REV_AT_EPOCH":"12423","MEAN_MOTION_DDOT":"0.0000000000000","FILE":"3902298","PERIAPSIS":"546.549","ARG_OF_PERICENTER":"81.9647","TLE_LINE2":"2 47585  53.0553   4.6339 0001042  81.9647 278.1461 15.06381464124238","CENTER_NAME":"EARTH","RA_OF_ASC_NODE":"4.6339","RCS_SIZE":"LARGE","APOAPSIS":"547.992","DECAY_DATE":null,"OBJECT_ID":"2021-009AP","MEAN_ANOMALY":"278.1461","BSTAR":"0.00135750000000","SEMIMAJOR_AXIS":"6925.405","LAUNCH_DATE":"2021-02-04","EPHEMERIS_TYPE":"0","OBJECT_TYPE":"PAYLOAD","CLASSIFICATION_TYPE":"U","OBJECT_NAME":"STARLINK-1989","MEAN_MOTION":"15.06381464","MEAN_ELEMENT_THEORY":"SGP4","EPOCH":"2023-05-05T23:10:05.958336","PERIOD":"95.593","SITE":"AFETR"},{"EPHEMERIS_TYPE":"0","OBJECT_TYPE":"PAYLOAD","CLASSIFICATION_TYPE":"U","OBJECT_NAME":"STARLINK-1990","MEAN_ELEMENT_THEORY":"SGP4","MEAN_MOTION":"15.06394650","EPOCH":"2023-05-06T00:21:45.953280","PERIOD":"95.592","SITE":"AFETR","RCS_SIZE":"LARGE","RA_OF_ASC_NODE":"24.4079","APOAPSIS":"547.945","DECAY_DATE":null,"OBJECT_ID":"2021-009AQ","MEAN_ANOMALY":"271.1785","BSTAR":"0.00171500000000","SEMIMAJOR_AXIS":"6925.365","LAUNCH_DATE":"2021-02-04","TLE_LINE1":"1 47586U 21009AQ  23126.01511520  .00025352  00000-0  17150-2 0  9994","TIME_SYSTEM":"UTC","REF_FRAME":"TEME","REV_AT_EPOCH":"12396","MEAN_MOTION_DDOT":"0.0000000000000","FILE":"3902298","ARG_OF_PERICENTER":"88.9322","PERIAPSIS":"546.515","TLE_LINE2":"2 47586  53.0548  24.4079 0001033  88.9322 271.1785 15.06394650123963","CENTER_NAME":"EARTH","ELEMENT_SET_NO":"999","COUNTRY_CODE":"US","GP_ID":"231350536","NORAD_CAT_ID":"47586","ECCENTRICITY":"0.00010330","INCLINATION":"53.0548","MEAN_MOTION_DOT":"0.00025352"},{"BSTAR":"-0.00011518000000","SEMIMAJOR_AXIS":"6925.426","LAUNCH_DATE":"2021-02-04","OBJECT_ID":"2021-009AR","MEAN_ANOMALY":"256.7779","RCS_SIZE":"LARGE","RA_OF_ASC_NODE":"354.4290","APOAPSIS":"547.983","DECAY_DATE":null,"PERIOD":"95.594","SITE":"AFETR","MEAN_ELEMENT_THEORY":"SGP4","MEAN_MOTION":"15.06374616","OBJECT_NAME":"STARLINK-1991","EPOCH":"2023-05-06T00:15:07.022016","EPHEMERIS_TYPE":"0","OBJECT_TYPE":"PAYLOAD","CLASSIFICATION_TYPE":"U","ECCENTRICITY":"0.00009990","NORAD_CAT_ID":"47587","INCLINATION":"53.0538","MEAN_MOTION_DOT":"-0.00001995","COUNTRY_CODE":"US","GP_ID":"231350027","ELEMENT_SET_NO":"999","CENTER_NAME":"EARTH","TLE_LINE2":"2 47587  53.0538 354.4290 0000999 103.3322 256.7779 15.06374616124385","PERIAPSIS":"546.600","ARG_OF_PERICENTER":"103.3322","MEAN_MOTION_DDOT":"0.0000000000000","FILE":"3902298","TLE_LINE1":"1 47587U 21009AR  23126.01049794 -.00001995  00000-0 -11518-3 0  9996","TIME_SYSTEM":"UTC","REF_FRAME":"TEME","REV_AT_EPOCH":"12438"},{"DECAY_DATE":null,"RA_OF_ASC_NODE":"1.4939","RCS_SIZE":"LARGE","APOAPSIS":"547.840","MEAN_ANOMALY":"263.6653","OBJECT_ID":"2021-009AS","LAUNCH_DATE":"2021-02-04","SEMIMAJOR_AXIS":"6925.291","BSTAR":"0.00186270000000","CLASSIFICATION_TYPE":"U","EPHEMERIS_TYPE":"0","OBJECT_TYPE":"PAYLOAD","MEAN_ELEMENT_THEORY":"SGP4","MEAN_MOTION":"15.06418772","OBJECT_NAME":"STARLINK-1993","EPOCH":"2023-05-06T15:58:33.800736","PERIOD":"95.591","SITE":"AFETR","ELEMENT_SET_NO":"999","GP_ID":"231350035","COUNTRY_CODE":"US","MEAN_MOTION_DOT":"0.00027586","NORAD_CAT_ID":"47588","ECCENTRICITY":"0.00009870","INCLINATION":"53.0539","REF_FRAME":"TEME","REV_AT_EPOCH":"12434","TLE_LINE1":"1 47588U 21009AS  23126.66566899  .00027586  00000-0  18627-2 0  9997","TIME_SYSTEM":"UTC","FILE":"3902298","MEAN_MOTION_DDOT":"0.0000000000000","ARG_OF_PERICENTER":"96.4449","PERIAPSIS":"546.472","TLE_LINE2":"2 47588  53.0539   1.4939 0000987  96.4449 263.6653 15.06418772124341","CENTER_NAME":"EARTH"},{"DECAY_DATE":null,"RCS_SIZE":"LARGE","RA_OF_ASC_NODE":"4.6816","APOAPSIS":"548.135","SEMIMAJOR_AXIS":"6925.416","LAUNCH_DATE":"2021-02-04","BSTAR":"0.00160490000000","MEAN_ANOMALY":"250.8303","OBJECT_ID":"2021-009AT","MEAN_ELEMENT_THEORY":"SGP4","OBJECT_NAME":"STARLINK-1994","MEAN_MOTION":"15.06378106","EPOCH":"2023-05-05T22:54:10.339776","CLASSIFICATION_TYPE":"U","EPHEMERIS_TYPE":"0","OBJECT_TYPE":"PAYLOAD","PERIOD":"95.594","SITE":"AFETR","GP_ID":"231350285","COUNTRY_CODE":"US","ELEMENT_SET_NO":"999","MEAN_MOTION_DOT":"0.00023690","ECCENTRICITY":"0.00012340","NORAD_CAT_ID":"47589","INCLINATION":"53.0551","FILE":"3902298","MEAN_MOTION_DDOT":"0.0000000000000","REF_FRAME":"TEME","REV_AT_EPOCH":"12423","TLE_LINE1":"1 47589U 21009AT  23125.95428634  .00023690  00000-0  16049-2 0  9991","TIME_SYSTEM":"UTC","TLE_LINE2":"2 47589  53.0551   4.6816 0001234 109.2819 250.8303 15.06378106124239","CENTER_NAME":"EARTH","PERIAPSIS":"546.426","ARG_OF_PERICENTER":"109.2819"},{"DECAY_DATE":null,"APOAPSIS":"547.973","RA_OF_ASC_NODE":"24.1266","RCS_SIZE":"LARGE","MEAN_ANOMALY":"268.6778","OBJECT_ID":"2021-009AU","SEMIMAJOR_AXIS":"6925.384","LAUNCH_DATE":"2021-02-04","BSTAR":"0.00169980000000","CLASSIFICATION_TYPE":"U","OBJECT_TYPE":"PAYLOAD","EPHEMERIS_TYPE":"0","EPOCH":"2023-05-06T01:51:58.728384","OBJECT_NAME":"STARLINK-1995","MEAN_ELEMENT_THEORY":"SGP4","MEAN_MOTION":"15.06388486","PERIOD":"95.593","SITE":"AFETR","ELEMENT_SET_NO":"999","GP_ID":"231351037","COUNTRY_CODE":"US","MEAN_MOTION_DOT":"0.00025120","INCLINATION":"53.0551","ECCENTRICITY":"0.00010450","NORAD_CAT_ID":"47590","REV_AT_EPOCH":"12397","REF_FRAME":"TEME","TIME_SYSTEM":"UTC","TLE_LINE1":"1 47590U 21009AU  23126.07776306  .00025120  00000-0  16998-2 0  9992","FILE":"3902298","MEAN_MOTION_DDOT":"0.0000000000000","ARG_OF_PERICENTER":"91.4331","PERIAPSIS":"546.525","CENTER_NAME":"EARTH","TLE_LINE2":"2 47590  53.0551  24.1266 0001045  91.4331 268.6778 15.06388486123973"},{"INCLINATION":"53.0550","ECCENTRICITY":"0.00010270","NORAD_CAT_ID":"47591","MEAN_MOTION_DOT":"0.00018848","ELEMENT_SET_NO":"999","COUNTRY_CODE":"US","GP_ID":"231316981","ARG_OF_PERICENTER":"93.3400","PERIAPSIS":"546.581","TLE_LINE2":"2 47591  53.0550   4.7002 0001027  93.3400 266.7707 15.06374375124236","CENTER_NAME":"EARTH","TIME_SYSTEM":"UTC","TLE_LINE1":"1 47591U 21009AV  23125.95059581  .00018848  00000-0  12817-2 0  9993","REV_AT_EPOCH":"12423","REF_FRAME":"TEME","MEAN_MOTION_DDOT":"0.0000000000000","FILE":"3901993","OBJECT_ID":"2021-009AV","MEAN_ANOMALY":"266.7707","BSTAR":"0.00128170000000","LAUNCH_DATE":"2021-02-04","SEMIMAJOR_AXIS":"6925.427","APOAPSIS":"548.003","RA_OF_ASC_NODE":"4.7002","RCS_SIZE":"LARGE","DECAY_DATE":null,"SITE":"AFETR","PERIOD":"95.594","OBJECT_TYPE":"PAYLOAD","EPHEMERIS_TYPE":"0","CLASSIFICATION_TYPE":"U","EPOCH":"2023-05-05T22:48:51.477984","MEAN_MOTION":"15.06374375","OBJECT_NAME":"STARLINK-1996","MEAN_ELEMENT_THEORY":"SGP4"},{"REV_AT_EPOCH":"12398","REF_FRAME":"TEME","TIME_SYSTEM":"UTC","TLE_LINE1":"1 47592U 21009AW  23126.18097335  .00025196  00000-0  17046-2 0  9992","FILE":"3902298","MEAN_MOTION_DDOT":"0.0000000000000","PERIAPSIS":"546.633","ARG_OF_PERICENTER":"109.5046","TLE_LINE2":"2 47592  53.0555  23.6655 0000860 109.5046 250.6036 15.06395078123987","CENTER_NAME":"EARTH","ELEMENT_SET_NO":"999","GP_ID":"231349535","COUNTRY_CODE":"US","MEAN_MOTION_DOT":"0.00025196","INCLINATION":"53.0555","NORAD_CAT_ID":"47592","ECCENTRICITY":"0.00008600","CLASSIFICATION_TYPE":"U","OBJECT_TYPE":"PAYLOAD","EPHEMERIS_TYPE":"0","EPOCH":"2023-05-06T04:20:36.097440","MEAN_MOTION":"15.06395078","MEAN_ELEMENT_THEORY":"SGP4","OBJECT_NAME":"STARLINK-1997","SITE":"AFETR","PERIOD":"95.592","DECAY_DATE":null,"APOAPSIS":"547.824","RCS_SIZE":"LARGE","RA_OF_ASC_NODE":"23.6655","MEAN_ANOMALY":"250.6036","OBJECT_ID":"2021-009AW","LAUNCH_DATE":"2021-02-04","SEMIMAJOR_AXIS":"6925.364","BSTAR":"0.00170460000000"},{"SEMIMAJOR_AXIS":"6925.398","LAUNCH_DATE":"2021-02-04","BSTAR":"0.00019550000000","MEAN_ANOMALY":"285.4461","OBJECT_ID":"2021-009AX","DECAY_DATE":null,"APOAPSIS":"548.184","RA_OF_ASC_NODE":"24.3979","RCS_SIZE":"LARGE","SITE":"AFETR","PERIOD":"95.593","EPOCH":"2023-05-06T00:27:03.554496","MEAN_MOTION":"15.06384011","MEAN_ELEMENT_THEORY":"SGP4","OBJECT_NAME":"STARLINK-1998","CLASSIFICATION_TYPE":"U","OBJECT_TYPE":"PAYLOAD","EPHEMERIS_TYPE":"0","MEAN_MOTION_DOT":"0.00002630","INCLINATION":"53.0552","ECCENTRICITY":"0.00013300","NORAD_CAT_ID":"47593","GP_ID":"231349785","COUNTRY_CODE":"US","ELEMENT_SET_NO":"999","TLE_LINE2":"2 47593  53.0552  24.3979 0001330  74.6675 285.4461 15.06384011123966","CENTER_NAME":"EARTH","PERIAPSIS":"546.341","ARG_OF_PERICENTER":"74.6675","FILE":"3902298","MEAN_MOTION_DDOT":"0.0000000000000","REV_AT_EPOCH":"12396","REF_FRAME":"TEME","TIME_SYSTEM":"UTC","TLE_LINE1":"1 47593U 21009AX  23126.01879114  .00002630  00000-0  19550-3 0  9999"},{"PERIOD":"95.595","SITE":"AFETR","MEAN_MOTION":"15.06356769","MEAN_ELEMENT_THEORY":"SGP4","OBJECT_NAME":"STARLINK-1999","EPOCH":"2023-05-05T23:39:16.933824","EPHEMERIS_TYPE":"0","OBJECT_TYPE":"PAYLOAD","CLASSIFICATION_TYPE":"U","BSTAR":"0.00147190000000","LAUNCH_DATE":"2021-02-04","SEMIMAJOR_AXIS":"6925.481","OBJECT_ID":"2021-009AY","MEAN_ANOMALY":"258.7916","RA_OF_ASC_NODE":"24.5423","RCS_SIZE":"LARGE","APOAPSIS":"548.006","DECAY_DATE":null,"TLE_LINE2":"2 47594  53.0557  24.5423 0000953 101.3180 258.7916 15.06356769123953","CENTER_NAME":"EARTH","ARG_OF_PERICENTER":"101.3180","PERIAPSIS":"546.686","MEAN_MOTION_DDOT":"0.0000000000000","FILE":"3902298","TLE_LINE1":"1 47594U 21009AY  23125.98561266  .00021685  00000-0  14719-2 0  9993","TIME_SYSTEM":"UTC","REF_FRAME":"TEME","REV_AT_EPOCH":"12395","NORAD_CAT_ID":"47594","ECCENTRICITY":"0.00009530","INCLINATION":"53.0557","MEAN_MOTION_DOT":"0.00021685","COUNTRY_CODE":"US","GP_ID":"231350537","ELEMENT_SET_NO":"999"}];
